{"type": "FeatureCollection", "features": [ {"type": "Feature", "properties": {"norad_id": 34031, "name": "COSMOS 2251 DEB", "group": "cosmos-2251-debris", "lat": 46.913656796963075, "lon": -42.20416632341119, "alt_km": 703.7658494094048, "timestamp": "2025-12-02T07:10:09.509823+00:00", "meta": {"OBJECT_NAME": "COSMOS 2251 DEB", "OBJECT_ID": "1993-036HS", "EPOCH": "2025-12-01T16:18:49.349376", "MEAN_MOTION": 14.59474758, "ECCENTRICITY": 0.0022935, "INCLINATION": 74.012, "RA_OF_ASC_NODE": 156.8274, "ARG_OF_PERICENTER": 277.5842, "MEAN_ANOMALY": 202.1723, "EPHEMERIS_TYPE": 0, "CLASSIFICATION_TYPE": "U", "NORAD_CAT_ID": 34031, "ELEMENT_SET_NO": 999, "REV_AT_EPOCH": 88404, "BSTAR": 0.0011722, "MEAN_MOTION_DOT": 5.556e-05, "MEAN_MOTION_DDOT": 0}, "tle": {"line1": "1 34031U 93036HS  25335.67973784  .00005556  00000+0  11722-2 0  9996", "line2": "2 34031  74.0120 156.8274 0022935 277.5842 202.1723 14.59474758884041"}}, "geometry": {"type": "Point", "coordinates": [-42.20416632341119, 46.913656796963075]}}, {"type": "Feature", "properties": {"norad_id": 34035, "name": "COSMOS 2251 DEB", "group": "cosmos-2251-debris", "lat": -42.409577102249536, "lon": -156.10142174918448, "alt_km": 752.8279006811736, "timestamp": "2025-12-02T07:10:09.509834+00:00", "meta": {"OBJECT_NAME": "COSMOS 2251 DEB", "OBJECT_ID": "1993-036HW", "EPOCH": "2025-12-01T12:37:52.001184", "MEAN_MOTION": 14.517264, "ECCENTRICITY": 0.00439808, "INCLINATION": 74.0664, "RA_OF_ASC_NODE": 10.2235, "ARG_OF_PERICENTER": 14.5761, "MEAN_ANOMALY": 134.9182, "EPHEMERIS_TYPE": 0, "CLASSIFICATION_TYPE": "U", "NORAD_CAT_ID": 34035, "ELEMENT_SET_NO": 999, "REV_AT_EPOCH": 87803, "BSTAR": 0.0015926333, "MEAN_MOTION_DOT": 6.455e-05, "MEAN_MOTION_DDOT": 0}, "tle": {"line1": "1 34035U 93036HW  25335.52629631  .00006455  00000+0  15926-2 0  9992", "line2": "2 34035  74.0664  10.2235 0043980  14.5761 134.9182 14.51726400878039"}}, "geometry": {"type": "Point", "coordinates": [-156.10142174918448, -42.409577102249536]}}, {"type": "Feature", "properties": {"norad_id": 34036, "name": "COSMOS 2251 DEB", "group": "cosmos-2251-debris", "lat": -29.276023158439145, "lon": 161.0755248373774, "alt_km": 598.2109912597889, "timestamp": "2025-12-02T07:10:09.509844+00:00", "meta": {"OBJECT_NAME": "COSMOS 2251 DEB", "OBJECT_ID": "1993-036HX", "EPOCH": "2025-11-30T23:09:20.036736", "MEAN_MOTION": 14.93557713, "ECCENTRICITY": 0.00153307, "INCLINATION": 74.0215, "RA_OF_ASC_NODE": 173.0047, "ARG_OF_PERICENTER": 207.7863, "MEAN_ANOMALY": 152.2504, "EPHEMERIS_TYPE": 0, "CLASSIFICATION_TYPE": "U", "NORAD_CAT_ID": 34036, "ELEMENT_SET_NO": 999, "REV_AT_EPOCH": 88394, "BSTAR": 0.0033859171, "MEAN_MOTION_DOT": 0.00035932, "MEAN_MOTION_DDOT": 0}, "tle": {"line1": "1 34036U 93036HX  25334.96481524  .00035932  00000+0  33859-2 0  9994", "line2": "2 34036  74.0215 173.0047 0015330 207.7863 152.2504 14.93557713883940"}}, "geometry": {"type": "Point", "coordinates": [161.0755248373774, -29.276023158439145]}}, {"type": "Feature", "properties": {"norad_id": 34037, "name": "COSMOS 2251 DEB", "group": "cosmos-2251-debris", "lat": 64.76649632055147, "lon": -147.8053817001513, "alt_km": 733.0306338142009, "timestamp": "2025-12-02T07:10:09.509854+00:00", "meta": {"OBJECT_NAME": "COSMOS 2251 DEB", "OBJECT_ID": "1993-036HY", "EPOCH": "2025-12-01T17:16:20.794368", "MEAN_MOTION": 14.3461163, "ECCENTRICITY": 0.0052541, "INCLINATION": 74.0515, "RA_OF_ASC_NODE": 70.6101, "ARG_OF_PERICENTER": 123.9302, "MEAN_ANOMALY": 236.6862, "EPHEMERIS_TYPE": 0, "CLASSIFICATION_TYPE": "U", "NORAD_CAT_ID": 34037, "ELEMENT_SET_NO": 999, "REV_AT_EPOCH": 87559, "BSTAR": 0.000596, "MEAN_MOTION_DOT": 1.685e-05, "MEAN_MOTION_DDOT": 0}, "tle": {"line1": "1 34037U 93036HY  25335.71968512  .00001685  00000+0  59600-3 0  9997", "line2": "2 34037  74.0515  70.6101 0052541 123.9302 236.6862 14.34611630875599"}}, "geometry": {"type": "Point", "coordinates": [-147.8053817001513, 64.76649632055147]}}, {"type": "Feature", "properties": {"norad_id": 34040, "name": "COSMOS 2251 DEB", "group": "cosmos-2251-debris", "lat": -33.64162265675071, "lon": 72.07475551966067, "alt_km": 932.5430679178298, "timestamp": "2025-12-02T07:10:09.509864+00:00", "meta": {"OBJECT_NAME": "COSMOS 2251 DEB", "OBJECT_ID": "1993-036JB", "EPOCH": "2025-12-01T15:32:36.382848", "MEAN_MOTION": 13.68357292, "ECCENTRICITY": 0.03427998, "INCLINATION": 73.9552, "RA_OF_ASC_NODE": 84.1901, "ARG_OF_PERICENTER": 39.8659, "MEAN_ANOMALY": 322.71, "EPHEMERIS_TYPE": 0, "CLASSIFICATION_TYPE": "U", "NORAD_CAT_ID": 34040, "ELEMENT_SET_NO": 999, "REV_AT_EPOCH": 83448, "BSTAR": 0.0003473683, "MEAN_MOTION_DOT": 4.26e-06, "MEAN_MOTION_DDOT": 0}, "tle": {"line1": "1 34040U 93036JB  25335.64764332  .00000426  00000+0  34737-3 0  9993", "line2": "2 34040  73.9552  84.1901 0342799  39.8659 322.7100 13.68357292834489"}}, "geometry": {"type": "Point", "coordinates": [72.07475551966067, -33.64162265675071]}}, {"type": "Feature", "properties": {"norad_id": 34045, "name": "COSMOS 2251 DEB", "group": "cosmos-2251-debris", "lat": 3.271863788312076, "lon": 149.00026083744805, "alt_km": 789.3285482395349, "timestamp": "2025-12-02T07:10:09.509887+00:00", "meta": {"OBJECT_NAME": "COSMOS 2251 DEB", "OBJECT_ID": "1993-036JG", "EPOCH": "2025-12-01T11:00:42.380640", "MEAN_MOTION": 14.34058556, "ECCENTRICITY": 0.00252993, "INCLINATION": 74.0386, "RA_OF_ASC_NODE": 331.4739, "ARG_OF_PERICENTER": 58.4332, "MEAN_ANOMALY": 103.4745, "EPHEMERIS_TYPE": 0, "CLASSIFICATION_TYPE": "U", "NORAD_CAT_ID": 34045, "ELEMENT_SET_NO": 999, "REV_AT_EPOCH": 87871, "BSTAR": 0.00011262121, "MEAN_MOTION_DOT": 2.9e-06, "MEAN_MOTION_DDOT": 0}, "tle": {"line1": "1 34045U 93036JG  25335.45882385  .00000290  00000+0  11262-3 0  9993", "line2": "2 34045  74.0386 331.4739 0025299  58.4332 103.4745 14.34058556878714"}}, "geometry": {"type": "Point", "coordinates": [149.00026083744805, 3.271863788312076]}}, {"type": "Feature", "properties": {"norad_id": 34046, "name": "COSMOS 2251 DEB", "group": "cosmos-2251-debris", "lat": 57.10818101720114, "lon": 56.22910446777127, "alt_km": 701.4232736334816, "timestamp": "2025-12-02T07:10:09.509898+00:00", "meta": {"OBJECT_NAME": "COSMOS 2251 DEB", "OBJECT_ID": "1993-036JH", "EPOCH": "2025-12-01T14:51:04.734720", "MEAN_MOTION": 14.46322811, "ECCENTRICITY": 0.00749829, "INCLINATION": 74.0405, "RA_OF_ASC_NODE": 31.235, "ARG_OF_PERICENTER": 117.9632, "MEAN_ANOMALY": 4.9199, "EPHEMERIS_TYPE": 0, "CLASSIFICATION_TYPE": "U", "NORAD_CAT_ID": 34046, "ELEMENT_SET_NO": 999, "REV_AT_EPOCH": 87665, "BSTAR": 0.0011432962, "MEAN_MOTION_DOT": 4.221e-05, "MEAN_MOTION_DDOT": 0}, "tle": {"line1": "1 34046U 93036JH  25335.61880480  .00004221  00000+0  11433-2 0  9993", "line2": "2 34046  74.0405  31.2350 0074982 117.9632   4.9199 14.46322811876658"}}, "geometry": {"type": "Point", "coordinates": [56.22910446777127, 57.10818101720114]}}, {"type": "Feature", "properties": {"norad_id": 34050, "name": "COSMOS 2251 DEB", "group": "cosmos-2251-debris", "lat": 21.048683166783757, "lon": 34.264685320820796, "alt_km": 857.6698351685282, "timestamp": "2025-12-02T07:10:09.509909+00:00", "meta": {"OBJECT_NAME": "COSMOS 2251 DEB", "OBJECT_ID": "1993-036JM", "EPOCH": "2025-12-01T14:25:41.202912", "MEAN_MOTION": 13.96150245, "ECCENTRICITY": 0.02147405, "INCLINATION": 74.0889, "RA_OF_ASC_NODE": 29.1584, "ARG_OF_PERICENTER": 96.3295, "MEAN_ANOMALY": 23.423, "EPHEMERIS_TYPE": 0, "CLASSIFICATION_TYPE": "U", "NORAD_CAT_ID": 34050, "ELEMENT_SET_NO": 999, "REV_AT_EPOCH": 85276, "BSTAR": 0.00059561222, "MEAN_MOTION_DOT": 9.72e-06, "MEAN_MOTION_DDOT": 0}, "tle": {"line1": "1 34050U 93036JM  25335.60117133  .00000972  00000+0  59561-3 0  9999", "line2": "2 34050  74.0889  29.1584 0214740  96.3295  23.4230 13.96150245852769"}}, "geometry": {"type": "Point", "coordinates": [34.264685320820796, 21.048683166783757]}}, {"type": "Feature", "properties": {"norad_id": 34053, "name": "COSMOS 2251 DEB", "group": "cosmos-2251-debris", "lat": -40.28920008196388, "lon": -115.22952063982879, "alt_km": 1076.7317101099607, "timestamp": "2025-12-02T07:10:09.509918+00:00", "meta": {"OBJECT_NAME": "COSMOS 2251 DEB", "OBJECT_ID": "1993-036JQ", "EPOCH": "2025-12-01T04:40:45.791616", "MEAN_MOTION": 13.49131108, "ECCENTRICITY": 0.0421551, "INCLINATION": 73.8444, "RA_OF_ASC_NODE": 260.7731, "ARG_OF_PERICENTER": 51.2666, "MEAN_ANOMALY": 312.5336, "EPHEMERIS_TYPE": 0, "CLASSIFICATION_TYPE": "U", "NORAD_CAT_ID": 34053, "ELEMENT_SET_NO": 999, "REV_AT_EPOCH": 82528, "BSTAR": 0.00092078, "MEAN_MOTION_DOT": 9.81e-06, "MEAN_MOTION_DDOT": 0}, "tle": {"line1": "1 34053U 93036JQ  25335.19497444  .00000981  00000+0  92078-3 0  9992", "line2": "2 34053  73.8444 260.7731 0421551  51.2666 312.5336 13.49131108825286"}}, "geometry": {"type": "Point", "coordinates": [-115.22952063982879, -40.28920008196388]}}, {"type": "Feature", "properties": {"norad_id": 34056, "name": "COSMOS 2251 DEB", "group": "cosmos-2251-debris", "lat": -23.783383704166887, "lon": 87.80835772406414, "alt_km": 917.5865580939471, "timestamp": "2025-12-02T07:10:09.509929+00:00", "meta": {"OBJECT_NAME": "COSMOS 2251 DEB", "OBJECT_ID": "1993-036JT", "EPOCH": "2025-12-01T18:20:52.050048", "MEAN_MOTION": 14.20462665, "ECCENTRICITY": 0.012499, "INCLINATION": 74.0584, "RA_OF_ASC_NODE": 95.9996, "ARG_OF_PERICENTER": 146.6444, "MEAN_ANOMALY": 338.1178, "EPHEMERIS_TYPE": 0, "CLASSIFICATION_TYPE": "U", "NORAD_CAT_ID": 34056, "ELEMENT_SET_NO": 999, "REV_AT_EPOCH": 86255, "BSTAR": 0.0015927, "MEAN_MOTION_DOT": 3.674e-05, "MEAN_MOTION_DDOT": 0}, "tle": {"line1": "1 34056U 93036JT  25335.76449132  .00003674  00000+0  15927-2 0  9998", "line2": "2 34056  74.0584  95.9996 0124990 146.6444 338.1178 14.20462665862552"}}, "geometry": {"type": "Point", "coordinates": [87.80835772406414, -23.783383704166887]}}]}